<?xml version="1.0" encoding="UTF-8"?>
<gpx version="1.1" creator="rally_map_app">
  <trk>
    <name>Closed Road 1 (derived from Stage 1)</name>
    <trkseg>

      <trkpt lat="52.140997" lon="-9.458613"><ele>0</ele></trkpt>
      <trkpt lat="52.142037" lon="-9.457197"><ele>0</ele></trkpt>
      <trkpt lat="52.143180" lon="-9.457570"><ele>0</ele></trkpt>
      <trkpt lat="52.144190" lon="-9.457960"><ele>0</ele></trkpt>
      <trkpt lat="52.146040" lon="-9.457230"><ele>0</ele></trkpt>
      <trkpt lat="52.147050" lon="-9.457180"><ele>0</ele></trkpt>
      <trkpt lat="52.148350" lon="-9.457380"><ele>0</ele></trkpt>
      <trkpt lat="52.149860" lon="-9.457880"><ele>0</ele></trkpt>
      <trkpt lat="52.151080" lon="-9.458440"><ele>0</ele></trkpt>
      <trkpt lat="52.152540" lon="-9.458670"><ele>0</ele></trkpt>
      <trkpt lat="52.154020" lon="-9.458500"><ele>0</ele></trkpt>

    </trkseg>
  </trk>
</gpx>