<?xml version="1.0" encoding="UTF-8"?>
<gpx version="1.1" creator="rally_map_app">
  <trk>
    <name>Closed Road 3 (derived from Stage 3)</name>
    <trkseg>

      <trkpt lat="51.955305" lon="-9.623666"><ele>0</ele></trkpt>
      <trkpt lat="51.954425" lon="-9.625211"><ele>0</ele></trkpt>
      <trkpt lat="51.953644" lon="-9.626642"><ele>0</ele></trkpt>
      <trkpt lat="51.952659" lon="-9.626992"><ele>0</ele></trkpt>
      <trkpt lat="51.951505" lon="-9.626732"><ele>0</ele></trkpt>
      <trkpt lat="51.950266" lon="-9.627600"><ele>0</ele></trkpt>
      <trkpt lat="51.949494" lon="-9.628352"><ele>0</ele></trkpt>
      <trkpt lat="51.948602" lon="-9.629554"><ele>0</ele></trkpt>
      <trkpt lat="51.947856" lon="-9.630906"><ele>0</ele></trkpt>
      <trkpt lat="51.947205" lon="-9.632282"><ele>0</ele></trkpt>
      <trkpt lat="51.947337" lon="-9.633772"><ele>0</ele></trkpt>

    </trkseg>
  </trk>
</gpx>