<?xml version="1.0" encoding="UTF-8"?>
<gpx version="1.1" creator="rally_map_app">
  <trk>
    <name>Closed Road 2 (derived from Stage 2)</name>
    <trkseg>

      <trkpt lat="52.057915" lon="-9.732063"><ele>0</ele></trkpt>
      <trkpt lat="52.058754" lon="-9.729958"><ele>0</ele></trkpt>
      <trkpt lat="52.059525" lon="-9.728250"><ele>0</ele></trkpt>
      <trkpt lat="52.059956" lon="-9.726892"><ele>0</ele></trkpt>
      <trkpt lat="52.060377" lon="-9.725073"><ele>0</ele></trkpt>
      <trkpt lat="52.060792" lon="-9.723669"><ele>0</ele></trkpt>
      <trkpt lat="52.061838" lon="-9.723631"><ele>0</ele></trkpt>

    </trkseg>
  </trk>
</gpx>